NORAD_CAT_ID,OBJECT_NAME,OBJECT_TYPE,EPOCH,MEAN_MOTION,ECCENTRICITY,INCLINATION,RA_OF_ASC_NODE,ARG_OF_PERICENTER,MEAN_ANOMALY,BSTAR,MEAN_MOTION_DOT,MEAN_MOTION_DDOT,TLE_LINE0,TLE_LINE1,TLE_LINE2,SEMIMAJOR_AXIS,PERIOD,APOGEE,PERIGEE,DECAYED
53138.0,STARLINK-4141,PAYLOAD,2024-04-22 22:51:28,15.08837689,0.0002733,53.2186,7.6985,147.5661,212.55,0.00035756,5.407e-05,0.0,0 STARLINK-4141,1 53138U 22083G   24113.95241372  .00005407  00000-0  35756-3 0  9994,2 53138  53.2186   7.6985 0002733 147.5661 212.5500 15.08837689 98532,6917.887,95.438,541.643,537.862,0.0
53138.0,STARLINK-4141,PAYLOAD,2024-04-23 02:02:15,15.08830443,0.0001721,53.2181,7.1001,126.4173,233.6978,0.00020057,2.905e-05,0.0,0 STARLINK-4141,1 53138U 22083G   24114.08489794  .00002905  00000-0  20057-3 0  9999,2 53138  53.2181   7.1001 0001721 126.4173 233.6978 15.08830443 98401,6917.91,95.438,540.965,538.584,0.0
53138.0,STARLINK-4141,PAYLOAD,2024-04-23 21:06:52,15.08855276,0.0001434,53.2189,3.5313,98.5559,261.5596,0.00073717,0.00011468,0.0,0 STARLINK-4141,1 53138U 22083G   24114.87977495  .00011468  00000-0  73717-3 0  9991,2 53138  53.2189   3.5313 0001434  98.5559 261.5596 15.08855276 98523,6917.834,95.437,540.691,538.707,0.0
53138.0,STARLINK-4141,PAYLOAD,2024-04-23 22:42:15,15.08859513,0.0001395,53.2177,3.2362,109.065,251.0494,0.00084672,0.0001322,0.0,0 STARLINK-4141,1 53138U 22083G   24114.94601360  .00013220  00000-0  84672-3 0  9994,2 53138  53.2177   3.2362 0001395 109.0650 251.0494 15.08859513 98683,6917.821,95.436,540.651,538.721,0.0
53138.0,STARLINK-4141,PAYLOAD,2024-04-24 01:53:01,15.08870458,0.0001402,53.2183,2.6381,107.8312,252.2833,0.0011161,0.00017534,0.0,0 STARLINK-4141,1 53138U 22083G   24115.07849000  .00017534  00000-0  11161-2 0  9998,2 53138  53.2183   2.6381 0001402 107.8312 252.2833 15.08870458 98551,6917.787,95.436,540.622,538.682,0.0
53138.0,STARLINK-4141,PAYLOAD,2024-04-24 20:57:38,15.0885938,0.0002316,53.22,359.0626,123.04,237.0815,0.0006104,9.445e-05,0.0,0 STARLINK-4141,1 53138U 22083G   24115.87336564  .00009445  00000-0  61040-3 0  9996,2 53138  53.2200 359.0626 0002316 123.0400 237.0815 15.08859380 98670,6917.821,95.436,541.288,538.084,0.0
53138.0,STARLINK-4141,PAYLOAD,2024-04-24 22:33:01,15.08858026,9.17e-05,53.2182,358.7766,98.2107,261.8989,0.00049151,7.547e-05,0.0,0 STARLINK-4141,1 53138U 22083G   24115.93960645  .00007547  00000-0  49151-3 0  9996,2 53138  53.2182 358.7766 0000917  98.2107 261.8989 15.08858026 98833,6917.825,95.436,540.325,539.056,0.0
53138.0,STARLINK-4141,PAYLOAD,2024-04-25 01:43:48,15.08856133,0.0001163,53.2181,358.185,54.2721,305.8379,0.00057282,8.844e-05,0.0,0 STARLINK-4141,1 53138U 22083G   24116.07208840  .00008844  00000-0  57282-3 0  9999,2 53138  53.2181 358.1850 0001163  54.2721 305.8379 15.08856133 98703,6917.831,95.437,540.501,538.892,0.0
53138.0,STARLINK-4141,PAYLOAD,2024-04-25 20:48:26,15.08836517,0.0001646,53.2196,354.605,83.8801,276.2379,0.00065193,0.00010102,0.0,0 STARLINK-4141,1 53138U 22083G   24116.86697662  .00010102  00000-0  65193-3 0  9990,2 53138  53.2196 354.6050 0001646  83.8801 276.2379 15.08836517 98823,6917.891,95.438,540.895,538.617,0.0
53138.0,STARLINK-4141,PAYLOAD,2024-04-25 22:23:49,15.08833888,0.0001463,53.2194,354.3083,83.3877,276.7282,0.000451,6.896e-05,0.0,0 STARLINK-4141,1 53138U 22083G   24116.93321671  .00006896  00000-0  45100-3 0  9993,2 53138  53.2194 354.3083 0001463  83.3877 276.7282 15.08833888 98982,6917.899,95.438,540.776,538.752,0.0
53138.0,STARLINK-4141,PAYLOAD,2024-04-26 15:53:04,15.0883692,0.0001357,53.2187,351.0387,95.9894,264.1253,0.00030956,4.642e-05,0.0,0 STARLINK-4141,1 53138U 22083G   24117.66185921  .00004642  00000-0  30956-3 0  9990,2 53138  53.2187 351.0387 0001357  95.9894 264.1253 15.08836920 98940,6917.89,95.438,540.694,538.816,0.0
53138.0,STARLINK-4141,PAYLOAD,2024-04-26 22:14:37,15.0884209,0.0001437,53.2182,349.8503,79.0207,281.0947,0.00034561,5.217e-05,0.0,0 STARLINK-4141,1 53138U 22083G   24117.92681891  .00005217  00000-0  34561-3 0  9991,2 53138  53.2182 349.8503 0001437  79.0207 281.0947 15.08842090 99135,6917.874,95.437,540.733,538.745,0.0
53138.0,STARLINK-4141,PAYLOAD,2024-04-27 20:30:01,15.08832394,0.000125,53.2173,345.6802,84.7673,275.3461,-1.1336e-05,-4.68e-06,0.0,0 STARLINK-4141,1 53138U 22083G   24118.85418301 -.00000468  00000-0 -11336-4 0  9999,2 53138  53.2173 345.6802 0001250  84.7673 275.3461 15.08832394 99126,6917.904,95.438,540.633,538.904,0.0
53138.0,STARLINK-4141,PAYLOAD,2024-04-27 22:05:24,15.08827814,0.00014,53.2177,345.3951,70.0784,290.0359,-6.8703e-05,-1.381e-05,0.0,0 STARLINK-4141,1 53138U 22083G   24118.92042682 -.00001381  00000-0 -68703-4 0  9997,2 53138  53.2177 345.3951 0001400  70.0784 290.0359 15.08827814 99288,6917.918,95.438,540.751,538.814,0.0
53138.0,STARLINK-4141,PAYLOAD,2024-04-28 07:37:43,15.08839026,0.0001467,53.2191,343.6116,78.5243,281.5913,0.00012801,1.75e-05,0.0,0 STARLINK-4141,1 53138U 22083G   24119.31786383  .00001750  00000-0  12801-3 0  9999,2 53138  53.2191 343.6116 0001467  78.5243 281.5913 15.08839026 99340,6917.883,95.438,540.763,538.734,0.0
53138.0,STARLINK-4141,PAYLOAD,2024-04-28 21:56:12,15.08834111,0.0001484,53.2188,340.9373,89.0367,271.0795,6.6956e-05,7.78e-06,0.0,0 STARLINK-4141,1 53138U 22083G   24119.91402947  .00000778  00000-0  66956-4 0  9996,2 53138  53.2188 340.9373 0001484  89.0367 271.0795 15.08834111 99436,6917.898,95.438,540.79,538.737,0.0
53138.0,STARLINK-4141,PAYLOAD,2024-04-29 07:28:30,15.08846938,0.0001609,53.2202,339.1531,86.6327,273.485,0.00017493,2.498e-05,0.0,0 STARLINK-4141,1 53138U 22083G   24120.31146195  .00002498  00000-0  17493-3 0  9994,2 53138  53.2202 339.1531 0001609  86.6327 273.4850 15.08846938 99345,6917.859,95.437,540.837,538.611,0.0
53138.0,STARLINK-4141,PAYLOAD,2024-04-29 20:11:35,15.08834227,0.0001621,53.2202,336.7746,88.0035,272.1143,0.00020561,2.985e-05,0.0,0 STARLINK-4141,1 53138U 22083G   24120.84138877  .00002985  00000-0  20561-3 0  9991,2 53138  53.2202 336.7746 0001621  88.0035 272.1143 15.08834227 99420,6917.898,95.438,540.884,538.642,0.0
53138.0,STARLINK-4141,PAYLOAD,2024-04-29 21:46:58,15.0883639,0.0001609,53.2203,336.477,85.6718,274.4458,0.00021508,3.136e-05,0.0,0 STARLINK-4141,1 53138U 22083G   24120.90762721  .00003136  00000-0  21508-3 0  9990,2 53138  53.2203 336.4770 0001609  85.6718 274.4458 15.08836390 99586,6917.891,95.438,540.87,538.643,0.0
53138.0,STARLINK-4141,PAYLOAD,2024-04-30 07:19:17,15.08845893,0.00016,53.2203,334.6917,82.1831,277.9343,0.00017838,2.552e-05,0.0,0 STARLINK-4141,1 53138U 22083G   24121.30506121  .00002552  00000-0  17838-3 0  9997,2 53138  53.2203 334.6917 0001600  82.1831 277.9343 15.08845893 99497,6917.862,95.437,540.834,538.621,0.0
53138.0,STARLINK-4141,PAYLOAD,2024-04-30 20:02:23,15.08839328,0.0001805,53.219,332.3127,84.329,275.7908,4.8041e-05,4.77e-06,0.0,0 STARLINK-4141,1 53138U 22083G   24121.83498952  .00000477  00000-0  48041-4 0  9992,2 53138  53.2190 332.3127 0001805  84.3290 275.7908 15.08839328 99578,6917.882,95.438,540.996,538.499,0.0
53138.0,STARLINK-4141,PAYLOAD,2024-04-30 21:37:46,15.08842565,0.00014,53.2194,332.013,81.9922,278.1229,6.8438e-06,-1.79e-06,0.0,0 STARLINK-4141,1 53138U 22083G   24121.90122721 -.00000179  00000-0  68438-5 0  9991,2 53138  53.2194 332.0130 0001400  81.9922 278.1229 15.08842565 99737,6917.873,95.437,540.706,538.769,0.0
53138.0,STARLINK-4141,PAYLOAD,2024-05-01 07:10:04,15.08852362,0.000139,53.2184,330.2279,78.7719,281.3429,6.5887e-05,7.61e-06,0.0,0 STARLINK-4141,1 53138U 22083G   24122.29865765  .00000761  00000-0  65887-4 0  9996,2 53138  53.2184 330.2279 0001390  78.7719 281.3429 15.08852362 99640,6917.843,95.437,540.669,538.746,0.0
53138.0,STARLINK-4141,PAYLOAD,2024-05-01 19:53:09,15.08842337,0.0001477,53.2186,327.8497,80.3918,279.7241,6.8806e-05,8.07e-06,0.0,0 STARLINK-4141,1 53138U 22083G   24122.82858259  .00000807  00000-0  68806-4 0  9990,2 53138  53.2186 327.8497 0001477  80.3918 279.7241 15.08842337 99725,6917.873,95.437,540.76,538.716,0.0
53138.0,STARLINK-4141,PAYLOAD,2024-05-02 13:22:23,15.08841719,0.0001671,53.2189,324.58,91.2425,268.8759,0.00010715,1.418e-05,0.0,0 STARLINK-4141,1 53138U 22083G   24123.55721962  .00001418  00000-0  10715-3 0  9995,2 53138  53.2189 324.5800 0001671  91.2425 268.8759 15.08841719 99984,6917.875,95.437,540.896,538.584,0.0
53138.0,STARLINK-4141,PAYLOAD,2024-05-03 13:13:11,15.08839434,0.0002079,53.2185,320.1203,85.8555,274.2675,3.9505e-05,3.41e-06,0.0,0 STARLINK-4141,1 53138U 22083G   24124.55082203  .00000341  00000-0  39505-4 0  9997,2 53138  53.2185 320.1203 0002079  85.8555 274.2675 15.08839434 99984,6917.882,95.438,541.185,538.309,0.0
53138.0,STARLINK-4141,PAYLOAD,2024-05-03 19:34:44,15.08830095,0.0001584,53.2189,318.9289,105.001,255.1157,-5.6424e-05,-1.186e-05,0.0,0 STARLINK-4141,1 53138U 22083G   24124.81578964 -.00001186  00000-0 -56424-4 0  9999,2 53138  53.2189 318.9289 0001584 105.0010 255.1157 15.08830095100023,6917.911,95.438,540.871,538.68,0.0
53138.0,STARLINK-4141,PAYLOAD,2024-05-04 13:03:58,15.0883654,0.0001401,53.2181,315.6576,112.9357,247.1783,6.8964e-05,8.1e-06,0.0,0 STARLINK-4141,1 53138U 22083G   24125.54442403  .00000810  00000-0  68964-4 0  9991,2 53138  53.2181 315.6576 0001401 112.9357 247.1783 15.08836540100136,6917.891,95.438,540.725,538.787,0.0
53138.0,STARLINK-4141,PAYLOAD,2024-05-05 04:57:48,15.08855189,0.0001173,53.2191,312.6868,93.3352,266.7774,0.00014836,2.075e-05,0.0,0 STARLINK-4141,1 53138U 22083G   24126.20681233  .00002075  00000-0  14836-3 0  9994,2 53138  53.2191 312.6868 0001173  93.3352 266.7774 15.08855189100239,6917.834,95.437,540.51,538.888,0.0
53138.0,STARLINK-4141,PAYLOAD,2024-05-05 12:54:45,15.08840048,0.0001943,53.2191,311.1992,102.6933,257.4277,0.00025886,3.834e-05,0.0,0 STARLINK-4141,1 53138U 22083G   24126.53802537  .00003834  00000-0  25886-3 0  9993,2 53138  53.2191 311.1992 0001943 102.6933 257.4277 15.08840048100283,6917.88,95.438,541.089,538.401,0.0
